[{"OBJECT_NAME":"YAOGAN-9 01A","OBJECT_ID":"2010-009A","EPOCH":"2026-03-09T22:05:01.658976","MEAN_MOTION":13.45682363,"ECCENTRICITY":0.05290759,"INCLINATION":63.3639,"RA_OF_ASC_NODE":255.0721,"ARG_OF_PERICENTER":20.95,"MEAN_ANOMALY":341.2345,"EPHEMERIS_TYPE":0,"CLASSIFICATION_TYPE":"U","NORAD_CAT_ID":36413,"ELEMENT_SET_NO":999,"REV_AT_EPOCH":78661,"BSTAR":7.2534976e-5,"MEAN_MOTION_DOT":1.0e-7,"MEAN_MOTION_DDOT":0},{"OBJECT_NAME":"COSMOS 2251 DEB","OBJECT_ID":"1993-036HY","EPOCH":"2026-03-09T21:22:54.598080","MEAN_MOTION":14.34973135,"ECCENTRICITY":0.00539739,"INCLINATION":74.0484,"RA_OF_ASC_NODE":250.8911,"ARG_OF_PERICENTER":279.5191,"MEAN_ANOMALY":79.9864,"EPHEMERIS_TYPE":0,"CLASSIFICATION_TYPE":"U","NORAD_CAT_ID":34037,"ELEMENT_SET_NO":999,"REV_AT_EPOCH":88967,"BSTAR":0.00055906211,"MEAN_MOTION_DOT":1.592e-5,"MEAN_MOTION_DDOT":0}]
